%% Joshua Stubbs
%  Feb. 2016

metar = 'KMSN 242353Z 34011G18KT 10SM BKN045 BKN170 BKN250 02/M03 A2977 RMK AO2 SLP089 T00221033 10028 20017 53005'
